start=new Date('2022-03-23T00:00:00.000Z').valueOf();
sats=[{"NORAD_CAT_ID":"47668","RCS_SIZE":"LARGE","TIME_SYSTEM":"UTC","LAUNCH_DATE":"2021-02-16","BSTAR":"0.00004527400000","EPOCH":"2022-03-22T16:39:46.624032","CENTER_NAME":"EARTH","PERIAPSIS":"545.778","FILE":"3370190","MEAN_MOTION":"15.06400749","TLE_LINE2":"2 47668  53.0544  71.9216 0002070  57.2689 302.8499 15.06400749 62027","RA_OF_ASC_NODE":"71.9216","OBJECT_NAME":"STARLINK-2059","ECCENTRICITY":"0.00020700","PERIOD":"95.592","SEMIMAJOR_AXIS":"6925.346","INCLINATION":"53.0544","ELEMENT_SET_NO":"999","MEAN_ANOMALY":"302.8499","MEAN_MOTION_DDOT":"0.0000000000000","CLASSIFICATION_TYPE":"U","TLE_LINE1":"1 47668U 21012BA  22081.69428963  .00000393  00000-0  45274-4 0  9998","APOAPSIS":"548.645","OBJECT_TYPE":"PAYLOAD","MEAN_ELEMENT_THEORY":"SGP4","COUNTRY_CODE":"US","EPHEMERIS_TYPE":"0","GP_ID":"199429269","SITE":"AFETR","DECAY_DATE":null,"OBJECT_ID":"2021-012BA","MEAN_MOTION_DOT":"0.00000393","ARG_OF_PERICENTER":"57.2689","REV_AT_EPOCH":"6202","REF_FRAME":"TEME"},{"CLASSIFICATION_TYPE":"U","TLE_LINE1":"1 47669U 21012BB  22082.00001157 -.00006542  00000-0 -42069-3 0  9999","MEAN_ANOMALY":"157.1161","MEAN_MOTION_DDOT":"0.0000000000000","APOAPSIS":"548.406","OBJECT_TYPE":"PAYLOAD","MEAN_ELEMENT_THEORY":"SGP4","COUNTRY_CODE":"US","EPHEMERIS_TYPE":"0","GP_ID":"199427520","SITE":"AFETR","DECAY_DATE":null,"MEAN_MOTION_DOT":"-0.00006542","ARG_OF_PERICENTER":"59.4660","OBJECT_ID":"2021-012BB","REV_AT_EPOCH":"357","REF_FRAME":"TEME","NORAD_CAT_ID":"47669","TIME_SYSTEM":"UTC","RCS_SIZE":"LARGE","BSTAR":"-0.00042069000000","LAUNCH_DATE":"2021-02-16","CENTER_NAME":"EARTH","EPOCH":"2022-03-23T00:00:00.999648","PERIAPSIS":"546.035","MEAN_MOTION":"15.06397718","FILE":"3370190","RA_OF_ASC_NODE":"355.5551","TLE_LINE2":"2 47669  53.0561 355.5551 0001712  59.4660 157.1161 15.06397718  3578","ECCENTRICITY":"0.00017120","OBJECT_NAME":"STARLINK-2060","PERIOD":"95.592","INCLINATION":"53.0561","ELEMENT_SET_NO":"999","SEMIMAJOR_AXIS":"6925.356"},{"SITE":"AFETR","GP_ID":"199395007","DECAY_DATE":null,"ARG_OF_PERICENTER":"37.5424","MEAN_MOTION_DOT":"-0.00000341","OBJECT_ID":"2021-012BC","REF_FRAME":"TEME","REV_AT_EPOCH":"6196","APOAPSIS":"549.122","TLE_LINE1":"1 47670U 21012BC  22081.37730620 -.00000341  00000-0 -39418-5 0  9991","CLASSIFICATION_TYPE":"U","MEAN_MOTION_DDOT":"0.0000000000000","MEAN_ANOMALY":"322.5756","OBJECT_TYPE":"PAYLOAD","MEAN_ELEMENT_THEORY":"SGP4","EPHEMERIS_TYPE":"0","COUNTRY_CODE":"US","RA_OF_ASC_NODE":"73.3336","TLE_LINE2":"2 47670  53.0551  73.3336 0002750  37.5424 322.5756 15.06398584 61960","MEAN_MOTION":"15.06398584","FILE":"3369829","ECCENTRICITY":"0.00027500","OBJECT_NAME":"STARLINK-2062","INCLINATION":"53.0551","ELEMENT_SET_NO":"999","SEMIMAJOR_AXIS":"6925.353","PERIOD":"95.592","TIME_SYSTEM":"UTC","RCS_SIZE":"LARGE","NORAD_CAT_ID":"47670","BSTAR":"-0.00000394180000","LAUNCH_DATE":"2021-02-16","PERIAPSIS":"545.313","CENTER_NAME":"EARTH","EPOCH":"2022-03-22T09:03:19.255680"},{"EPHEMERIS_TYPE":"0","COUNTRY_CODE":"US","MEAN_ELEMENT_THEORY":"SGP4","OBJECT_TYPE":"PAYLOAD","APOAPSIS":"548.352","TLE_LINE1":"1 47671U 21012BD  22081.82330368  .00001685  00000-0  13201-3 0  9997","CLASSIFICATION_TYPE":"U","MEAN_MOTION_DDOT":"0.0000000000000","MEAN_ANOMALY":"299.6000","REV_AT_EPOCH":"6204","REF_FRAME":"TEME","MEAN_MOTION_DOT":"0.00001685","ARG_OF_PERICENTER":"60.5150","OBJECT_ID":"2021-012BD","DECAY_DATE":null,"SITE":"AFETR","GP_ID":"199429019","PERIAPSIS":"546.109","CENTER_NAME":"EARTH","EPOCH":"2022-03-22T19:45:33.437952","BSTAR":"0.00013201000000","LAUNCH_DATE":"2021-02-16","RCS_SIZE":"LARGE","TIME_SYSTEM":"UTC","NORAD_CAT_ID":"47671","INCLINATION":"53.0530","ELEMENT_SET_NO":"999","SEMIMAJOR_AXIS":"6925.365","PERIOD":"95.592","ECCENTRICITY":"0.00016190","OBJECT_NAME":"STARLINK-2064","RA_OF_ASC_NODE":"71.3442","TLE_LINE2":"2 47671  53.0530  71.3442 0001619  60.5150 299.6000 15.06394510 62040","MEAN_MOTION":"15.06394510","FILE":"3370190"},{"OBJECT_TYPE":"PAYLOAD","MEAN_MOTION_DDOT":"0.0000000000000","MEAN_ANOMALY":"289.0569","TLE_LINE1":"1 47672U 21012BE  22081.66941131 -.00001824  00000-0 -10362-3 0  9998","CLASSIFICATION_TYPE":"U","APOAPSIS":"548.302","COUNTRY_CODE":"US","EPHEMERIS_TYPE":"0","MEAN_ELEMENT_THEORY":"SGP4","DECAY_DATE":null,"GP_ID":"199428769","SITE":"AFETR","REV_AT_EPOCH":"6213","REF_FRAME":"TEME","OBJECT_ID":"2021-012BE","MEAN_MOTION_DOT":"-0.00001824","ARG_OF_PERICENTER":"71.0586","LAUNCH_DATE":"2021-02-16","BSTAR":"-0.00010362000000","NORAD_CAT_ID":"47672","TIME_SYSTEM":"UTC","RCS_SIZE":"LARGE","EPOCH":"2022-03-22T16:03:57.137184","CENTER_NAME":"EARTH","PERIAPSIS":"546.173","FILE":"3370190","MEAN_MOTION":"15.06392237","TLE_LINE2":"2 47672  53.0545  62.0278 0001537  71.0586 289.0569 15.06392237 62137","RA_OF_ASC_NODE":"62.0278","PERIOD":"95.593","SEMIMAJOR_AXIS":"6925.372","INCLINATION":"53.0545","ELEMENT_SET_NO":"999","OBJECT_NAME":"STARLINK-2065","ECCENTRICITY":"0.00015370"},{"BSTAR":"-0.00001053000000","LAUNCH_DATE":"2021-02-16","NORAD_CAT_ID":"47673","RCS_SIZE":"LARGE","TIME_SYSTEM":"UTC","CENTER_NAME":"EARTH","EPOCH":"2022-03-22T09:08:37.305312","PERIAPSIS":"545.841","MEAN_MOTION":"15.06414137","FILE":"3369829","RA_OF_ASC_NODE":"73.3303","TLE_LINE2":"2 47673  53.0562  73.3303 0001919  68.1367 291.9826 15.06414137 61961","PERIOD":"95.591","INCLINATION":"53.0562","ELEMENT_SET_NO":"999","SEMIMAJOR_AXIS":"6925.305","ECCENTRICITY":"0.00019190","OBJECT_NAME":"STARLINK-2066","OBJECT_TYPE":"PAYLOAD","CLASSIFICATION_TYPE":"U","TLE_LINE1":"1 47673U 21012BF  22081.38098733 -.00000439  00000-0 -10530-4 0  9998","MEAN_MOTION_DDOT":"0.0000000000000","MEAN_ANOMALY":"291.9826","APOAPSIS":"548.499","COUNTRY_CODE":"US","EPHEMERIS_TYPE":"0","MEAN_ELEMENT_THEORY":"SGP4","DECAY_DATE":null,"GP_ID":"199396259","SITE":"AFETR","REF_FRAME":"TEME","REV_AT_EPOCH":"6196","MEAN_MOTION_DOT":"-0.00000439","ARG_OF_PERICENTER":"68.1367","OBJECT_ID":"2021-012BF"},{"PERIAPSIS":"545.986","CENTER_NAME":"EARTH","EPOCH":"2022-03-22T15:52:00.634080","RCS_SIZE":"LARGE","TIME_SYSTEM":"UTC","NORAD_CAT_ID":"47674","BSTAR":"-0.00003131300000","LAUNCH_DATE":"2021-02-16","ECCENTRICITY":"0.00017790","OBJECT_NAME":"STARLINK-2067","INCLINATION":"53.0543","ELEMENT_SET_NO":"999","SEMIMAJOR_AXIS":"6925.353","PERIOD":"95.592","RA_OF_ASC_NODE":"72.0576","TLE_LINE2":"2 47674  53.0543  72.0576 0001779  58.2329 301.8833 15.06398670 62010","MEAN_MOTION":"15.06398670","FILE":"3370190","MEAN_ELEMENT_THEORY":"SGP4","EPHEMERIS_TYPE":"0","COUNTRY_CODE":"US","APOAPSIS":"548.450","CLASSIFICATION_TYPE":"U","TLE_LINE1":"1 47674U 21012BG  22081.66111845 -.00000748  00000-0 -31313-4 0  9995","MEAN_ANOMALY":"301.8833","MEAN_MOTION_DDOT":"0.0000000000000","OBJECT_TYPE":"PAYLOAD","ARG_OF_PERICENTER":"58.2329","MEAN_MOTION_DOT":"-0.00000748","OBJECT_ID":"2021-012BG","REV_AT_EPOCH":"6201","REF_FRAME":"TEME","SITE":"AFETR","GP_ID":"199427770","DECAY_DATE":null},{"MEAN_ELEMENT_THEORY":"SGP4","EPHEMERIS_TYPE":"0","COUNTRY_CODE":"US","APOAPSIS":"548.374","MEAN_MOTION_DDOT":"0.0000000000000","MEAN_ANOMALY":"301.0032","CLASSIFICATION_TYPE":"U","TLE_LINE1":"1 47675U 21012BH  22081.38836270 -.00001670  00000-0 -93247-4 0  9990","OBJECT_TYPE":"PAYLOAD","OBJECT_ID":"2021-012BH","ARG_OF_PERICENTER":"59.1119","MEAN_MOTION_DOT":"-0.00001670","REV_AT_EPOCH":"6197","REF_FRAME":"TEME","SITE":"AFETR","GP_ID":"199395752","DECAY_DATE":null,"PERIAPSIS":"546.087","EPOCH":"2022-03-22T09:19:14.537280","CENTER_NAME":"EARTH","RCS_SIZE":"LARGE","TIME_SYSTEM":"UTC","NORAD_CAT_ID":"47675","LAUNCH_DATE":"2021-02-16","BSTAR":"-0.00009324700000","ECCENTRICITY":"0.00016510","OBJECT_NAME":"STARLINK-2078","SEMIMAJOR_AXIS":"6925.365","INCLINATION":"53.0564","ELEMENT_SET_NO":"999","PERIOD":"95.592","TLE_LINE2":"2 47675  53.0564  73.2999 0001651  59.1119 301.0032 15.06394541 61972","RA_OF_ASC_NODE":"73.2999","FILE":"3369829","MEAN_MOTION":"15.06394541"},{"SEMIMAJOR_AXIS":"6925.405","ELEMENT_SET_NO":"999","INCLINATION":"53.0549","PERIOD":"95.593","OBJECT_NAME":"STARLINK-2083","ECCENTRICITY":"0.00020130","TLE_LINE2":"2 47676  53.0549 320.5598 0002013  61.0169  42.8979 15.06381635  3571","RA_OF_ASC_NODE":"320.5598","FILE":"3370190","MEAN_MOTION":"15.06381635","PERIAPSIS":"545.876","EPOCH":"2022-03-23T00:00:00.999648","CENTER_NAME":"EARTH","LAUNCH_DATE":"2021-02-16","BSTAR":"0.00079706000000","RCS_SIZE":"LARGE","TIME_SYSTEM":"UTC","NORAD_CAT_ID":"47676","REF_FRAME":"TEME","REV_AT_EPOCH":"357","OBJECT_ID":"2021-012BJ","MEAN_MOTION_DOT":"0.00011605","ARG_OF_PERICENTER":"61.0169","DECAY_DATE":null,"SITE":"AFETR","GP_ID":"199429270","EPHEMERIS_TYPE":"0","COUNTRY_CODE":"US","MEAN_ELEMENT_THEORY":"SGP4","OBJECT_TYPE":"PAYLOAD","APOAPSIS":"548.664","MEAN_MOTION_DDOT":"0.0000000000000","MEAN_ANOMALY":"42.8979","CLASSIFICATION_TYPE":"U","TLE_LINE1":"1 47676U 21012BJ  22082.00001157  .00011605  00000-0  79706-3 0  9999"},{"DECAY_DATE":null,"GP_ID":"199396754","SITE":"AFETR","REV_AT_EPOCH":"6170","REF_FRAME":"TEME","OBJECT_ID":"2021-012BK","ARG_OF_PERICENTER":"49.6872","MEAN_MOTION_DOT":"-0.00000738","OBJECT_TYPE":"PAYLOAD","MEAN_MOTION_DDOT":"0.0000000000000","MEAN_ANOMALY":"310.4267","CLASSIFICATION_TYPE":"U","TLE_LINE1":"1 47677U 21012BK  22081.50815192 -.00000738  00000-0 -30668-4 0  9998","APOAPSIS":"548.385","COUNTRY_CODE":"US","EPHEMERIS_TYPE":"0","MEAN_ELEMENT_THEORY":"SGP4","FILE":"3369829","MEAN_MOTION":"15.06406016","TLE_LINE2":"2 47677  53.0548  92.7706 0001718  49.6872 310.4267 15.06406016 61708","RA_OF_ASC_NODE":"92.7706","PERIOD":"95.592","SEMIMAJOR_AXIS":"6925.330","ELEMENT_SET_NO":"999","INCLINATION":"53.0548","ECCENTRICITY":"0.00017180","OBJECT_NAME":"STARLINK-2090","LAUNCH_DATE":"2021-02-16","BSTAR":"-0.00003066800000","NORAD_CAT_ID":"47677","RCS_SIZE":"LARGE","TIME_SYSTEM":"UTC","EPOCH":"2022-03-22T12:11:44.325888","CENTER_NAME":"EARTH","PERIAPSIS":"546.005"}];
